SAUDISAT 2              
1 28371U 04025F   26132.85984014  .00000172  00000+0  49507-4 0  9993
2 28371  98.5510 131.9302 0025629  47.3622 312.9729 14.56661544160606
COSMOS 2407             
1 28380U 04028A   26132.87969144  .00000051  00000+0  36917-4 0  9992
2 28380  82.9581 100.9832 0039107 353.3859  65.1381 13.76331617 95023
COSMOS 2414             
1 28521U 05002A   26132.85178057  .00000055  00000+0  32614-4 0  9999
2 28521  82.9499  70.3718 0041550  70.7374 289.8277 13.87922790 78916
INMARSAT 4-F1           
1 28628U 05009A   26132.59627955  .00000046  00000+0  00000+0 0  9990
2 28628   5.1200  42.6762 0002740   9.4228 211.0671  1.00271339 77313
SJ-7                    
1 28737U 05024A   26132.83400644  .00005181  00000+0  23619-3 0  9999
2 28737  97.7316 161.9984 0016932 150.2468 209.9733 15.20989443142653
CUBESAT XI-V            
1 28895U 05043F   26132.66158955  .00000827  00000+0  13840-3 0  9998
2 28895  98.2946 287.5478 0013167 322.3080  37.7203 14.72535163 96520
HINODE (SOLAR-B)        
1 29479U 06041A   26132.75617782  .00000425  00000+0  81408-4 0  9994
2 29479  98.0564 149.4302 0018457  44.3529 315.9151 14.68570128 49673
SHIJIAN-6 02B (SJ-6 02B)
1 29506U 06046B   26132.88883638  .00000991  00000+0  81704-4 0  9996
2 29506  97.7161 162.1666 0011578 174.8330 185.3016 15.01272601 65449
DMSP 5D-3 F17 (USA 191) 
1 29522U 06050A   26132.81393499  .00000034  00000+0  40165-4 0  9997
2 29522  98.7387 140.1072 0010632 151.0372 209.1394 14.14986857  7424
LAPAN-TUBSAT            
1 29709U 07001A   26132.83409992  .00000555  00000+0  70197-4 0  9995
2 29709  98.1349 131.2632 0010963 305.9035  54.1161 14.85915651 45906
HAIYANG-1B              
1 31113U 07010A   26132.83502346  .00000053  00000+0  36116-4 0  9990
2 31113  98.3484 116.0547 0012521 310.1525  49.8561 14.31017980995571
COSMO-SKYMED 2          
1 32376U 07059A   26132.85304462  .00000234  00000+0  35905-4 0  9992
2 32376  97.8886 316.9638 0001463  90.0041 270.1340 14.82155900996762
CARTOSAT-2A             
1 32783U 08021A   26132.87112738 -.00000284  00000+0 -31562-4 0  9991
2 32783  97.7665 182.7812 0010649 221.3435 138.6972 14.79185897973581
CUTE-1.7+APD II (CO-65) 
1 32785U 08021C   26132.84521333  .00002895  00000+0  18667-3 0  9993
2 32785  97.8259 113.5431 0010036 140.5484 219.6477 15.09105840979869
SEEDS II (CO-66)        
1 32791U 08021J   26132.73647330  .00011772  00000+0  38923-3 0  9995
2 32791  97.7525 128.9791 0005011  84.8915 275.2897 15.31513020981861
YUBILEINY (RS30)        
1 32953U 08025A   26132.76859314 -.00000021  00000+0 -22185-3 0  9999
2 32953  82.5071  17.4718 0020334  30.8376 329.3894 12.43177866815292
FENGYUN 3A              
1 32958U 08026A   26132.80543277  .00000030  00000+0  35023-4 0  9992
2 32958  98.6871  74.3041 0007812 225.2353 134.8188 14.19563439930388
HUANJING 1A (HJ-1A)     
1 33320U 08041A   26132.90064987  .00000056  00000+0  12931-4 0  9991
2 33320  97.6674 120.1089 0017394 253.7646 106.1655 14.83903641953178
HUANJING 1B (HJ-1B)     
1 33321U 08041B   26132.85404730  .00000378  00000+0  52176-4 0  9992
2 33321  97.6514 123.3412 0035058 301.0268  58.7506 14.83253671953179
SHIJIAN-6 03A (SJ-6 03A)
1 33408U 08053A   26132.89092154  .00002622  00000+0  13693-3 0  9992
2 33408  97.8447 164.9908 0012739 129.3741 230.8622 15.16801124957615
SHIJIAN-6 03B (SJ-6 03B)
1 33409U 08053B   26132.84439341  .00000474  00000+0  38696-4 0  9995
2 33409  97.8610 152.1510 0020072 155.0405 205.1796 15.04208047957437
CHUANGXIN 1-02 (CX-1-02)
1 33434U 08056B   26132.82640079 -.00000036  00000+0  30094-5 0  9996
2 33434  98.6165 159.4423 0013110 242.1425 117.8430 14.30145217913564
