OBJECT_NAME,OBJECT_ID,EPOCH,MEAN_MOTION,ECCENTRICITY,INCLINATION,RA_OF_ASC_NODE,ARG_OF_PERICENTER,MEAN_ANOMALY,EPHEMERIS_TYPE,CLASSIFICATION_TYPE,NORAD_CAT_ID,ELEMENT_SET_NO,REV_AT_EPOCH,BSTAR,MEAN_MOTION_DOT,MEAN_MOTION_DDOT
SAUDISAT 2,2004-025F,2026-05-12T20:38:10.188096,14.56661544,.0025629,98.5510,131.9302,47.3622,312.9729,0,U,28371,999,16060,.49507E-4,.172E-5,0
COSMOS 2407,2004-028A,2026-05-12T21:06:45.340416,13.76331617,.0039107,82.9581,100.9832,353.3859,65.1381,0,U,28380,999,9502,.36917E-4,.51E-6,0
COSMOS 2414,2005-002A,2026-05-12T20:26:33.841248,13.87922790,.004155,82.9499,70.3718,70.7374,289.8277,0,U,28521,999,7891,.32614E-4,.55E-6,0
INMARSAT 4-F1,2005-009A,2026-05-12T14:18:38.553120,1.00271339,.000274,5.1200,42.6762,9.4228,211.0671,0,U,28628,999,7731,0,.46E-6,0
SJ-7,2005-024A,2026-05-12T20:00:58.156416,15.20989443,.0016932,97.7316,161.9984,150.2468,209.9733,0,U,28737,999,14265,.23619E-3,.5181E-4,0
CUBESAT XI-V,2005-043F,2026-05-12T15:52:41.337120,14.72535163,.0013167,98.2946,287.5478,322.3080,37.7203,0,U,28895,999,9652,.1384E-3,.827E-5,0
HINODE (SOLAR-B),2006-041A,2026-05-12T18:08:53.763648,14.68570128,.0018457,98.0564,149.4302,44.3529,315.9151,0,U,29479,999,4967,.81408E-4,.425E-5,0
SHIJIAN-6 02B (SJ-6 02B),2006-046B,2026-05-12T21:19:55.463232,15.01272601,.0011578,97.7161,162.1666,174.8330,185.3016,0,U,29506,999,6544,.81704E-4,.991E-5,0
DMSP 5D-3 F17 (USA 191),2006-050A,2026-05-12T19:32:03.983136,14.14986857,.0010632,98.7387,140.1072,151.0372,209.1394,0,U,29522,999,742,.40165E-4,.34E-6,0
LAPAN-TUBSAT,2007-001A,2026-05-12T20:01:06.233088,14.85915651,.0010963,98.1349,131.2632,305.9035,54.1161,0,U,29709,999,4590,.70197E-4,.555E-5,0
HAIYANG-1B,2007-010A,2026-05-12T20:02:26.026944,14.31017980,.0012521,98.3484,116.0547,310.1525,49.8561,0,U,31113,999,99557,.36116E-4,.53E-6,0
COSMO-SKYMED 2,2007-059A,2026-05-12T20:28:23.055168,14.82155900,.0001463,97.8886,316.9638,90.0041,270.1340,0,U,32376,999,99676,.35905E-4,.234E-5,0
CARTOSAT-2A,2008-021A,2026-05-12T20:54:25.405632,14.79185897,.0010649,97.7665,182.7812,221.3435,138.6972,0,U,32783,999,97358,-.31562E-4,-.284E-5,0
CUTE-1.7+APD II (CO-65),2008-021C,2026-05-12T20:17:06.431712,15.09105840,.0010036,97.8259,113.5431,140.5484,219.6477,0,U,32785,999,97986,.18667E-3,.2895E-4,0
SEEDS II (CO-66),2008-021J,2026-05-12T17:40:31.293120,15.31513020,.0005011,97.7525,128.9791,84.8915,275.2897,0,U,32791,999,98186,.38923E-3,.11772E-3,0
YUBILEINY (RS30),2008-025A,2026-05-12T18:26:46.447296,12.43177866,.0020334,82.5071,17.4718,30.8376,329.3894,0,U,32953,999,81529,-.22185E-3,-.21E-6,0
FENGYUN 3A,2008-026A,2026-05-12T19:19:49.391328,14.19563439,.0007812,98.6871,74.3041,225.2353,134.8188,0,U,32958,999,93038,.35023E-4,.3E-6,0
HUANJING 1A (HJ-1A),2008-041A,2026-05-12T21:36:56.148768,14.83903641,.0017394,97.6674,120.1089,253.7646,106.1655,0,U,33320,999,95317,.12931E-4,.56E-6,0
HUANJING 1B (HJ-1B),2008-041B,2026-05-12T20:29:49.686720,14.83253671,.0035058,97.6514,123.3412,301.0268,58.7506,0,U,33321,999,95317,.52176E-4,.378E-5,0
SHIJIAN-6 03A (SJ-6 03A),2008-053A,2026-05-12T21:22:55.621056,15.16801124,.0012739,97.8447,164.9908,129.3741,230.8622,0,U,33408,999,95761,.13693E-3,.2622E-4,0
SHIJIAN-6 03B (SJ-6 03B),2008-053B,2026-05-12T20:15:55.590624,15.04208047,.0020072,97.8610,152.1510,155.0405,205.1796,0,U,33409,999,95743,.38696E-4,.474E-5,0
CHUANGXIN 1-02 (CX-1-02),2008-056B,2026-05-12T19:50:01.028256,14.30145217,.001311,98.6165,159.4423,242.1425,117.8430,0,U,33434,999,91356,.30094E-5,-.36E-6,0
